#aV2010 10 24  0  0   .00000000      96 DD+AD WGS84 FIT  NGA
## 1607       .00000000   900.00000000 55493  .0000000000000
+   32     1  2  3  4  5  6  7  8  9 10 11 12 13 14 15 16 17
+         18 19 20 21 22 23 24 25 26 27 28 29 30 31 32  0  0
+          0  0  0  0  0  0  0  0  0  0  0  0  0  0  0  0  0
+          0  0  0  0  0  0  0  0  0  0  0  0  0  0  0  0  0
+          0  0  0  0  0  0  0  0  0  0  0  0  0  0  0  0  0
++         0  0  0  0  0  0  0  0  0  0  0  0  0  0  0  0  0
++         0  0  0  0  0  0  0  0  0  0  0  0  0  0  0  0  0
++         0  0  0  0  0  0  0  0  0  0  0  0  0  0  0  0  0
++         0  0  0  0  0  0  0  0  0  0  0  0  0  0  0  0  0
++         0  0  0  0  0  0  0  0  0  0  0  0  0  0  0  0  0
%c cc cc ccc ccc cccc cccc cccc cccc ccccc ccccc ccccc ccccc
%c cc cc ccc ccc cccc cccc cccc cccc ccccc ccccc ccccc ccccc
%f  0.0000000  0.000000000  0.00000000000  0.000000000000000
%f  0.0000000  0.000000000  0.00000000000  0.000000000000000
%i    0    0    0    0      0      0      0      0         0
%i    0    0    0    0      0      0      0      0         0
/*      NGA, ST. LOUIS,MO.                                  
/*   EPHEMERIS COMPUTED FROM  3 DAYS OF DATA                
/* CCCCCCCCCCCCCCCCCCCCCCCCCCCCCCCCCCCCCCCCCCCCCCCCCCCCCCCCC
/* CCCCCCCCCCCCCCCCCCCCCCCCCCCCCCCCCCCCCCCCCCCCCCCCCCCCCCCCC
*  2010 10 24 16 30   .00000000                                                 
P  1  15455.046611   8546.718697 -19990.175229   -175.540233                    
V  1 -22788.024575  10513.667151 -13078.821845      -.037146                    
P  2 -13812.045027 -10112.298290 -20410.800933    297.711360                    
V  2   3909.449866 -25605.273768   9571.812708       .025837                    
P  3  24306.340836   8771.891706   6444.426688    625.924871                    
V  3   5675.631459   7409.517191 -29333.368237       .049156                    
P  4  -8359.321858 -20177.261150 -15056.557271    202.029912                    
V  4   5231.518066 -18449.272049  22456.001109       .095358                    
P  5 -23814.671753    817.309749 -11837.712790    -56.536786                    
V  5  12933.608428  -7952.035858 -26499.031594      -.059585                    
P  6  23084.472324  12923.500194   3433.626746    444.253879                    
V  6   1461.753727   5189.263742 -30646.628909      -.134941                    
P  7   5916.426671 -25561.211192  -3364.177267     -1.182394                    
V  7   1940.585756   4605.395498 -31781.338045       .002920                    
P  8   -436.462651 -24808.139979   8660.740530      6.878266                    
V  8   4307.253493 -10445.228926 -30253.656877      -.000637                    
P  9 -13718.970304  12654.085355  18350.477365     38.296606                    
V  9   1377.785671 -24380.756804  17351.793683       .023271                    
P 10 -13773.363595 -10348.126149 -20493.152945    -56.037346                    
V 10  23532.781285  -9954.536888 -10535.032350      -.010569                    
P 11  11427.186035 -17168.495812  16252.908442    -98.855783                    
V 11   5668.604527  21117.188948  18358.526098      -.027537                    
P 12 -23630.000409  11552.733771  -2995.010528    -60.438508                    
V 12  -4528.242398   -961.689093  31811.093085       .035765                    
P 13   3703.509495 -15485.002665 -21381.572611    294.001140                    
V 13  20253.459072  17509.608840  -9276.573273      -.010826                    
P 14  13748.365359  20569.823205  10005.221823    100.967391                    
V 14 -10510.542675  -6792.864019  28725.751328       .034719                    
P 15 -19946.585848    768.039565  17609.674533   -191.840211                    
V 15 -16842.301717 -14707.456382 -18320.803850       .047811                    
P 16  20908.654464   3819.480816 -16071.470842   -120.130603                    
V 16 -18501.865691   8536.709512 -21730.019527      -.033213                    
P 17 -11871.653420 -20627.012159  12126.617994    175.221051                    
V 17  13115.803973   7887.664166  26276.372260       .012565                    
P 18  -8260.264376  17604.343082  18223.320012    100.696333                    
V 18 -21972.945263   6310.575460 -16696.935336       .021886                    
P 19  20140.635200   1792.601136  17392.937885    -77.078000                    
V 19  15182.638906  15938.041243 -18913.873851      -.033382                    
P 20  22319.650587 -13669.851182  -4463.079520     50.012576                    
V 20   6511.098902    981.694379  30538.272798      -.002712                    
P 21  -4175.343173  25867.927791   -502.458626    -97.443558                    
V 21  -4065.038489  -1685.645004 -31514.136481      -.027022                    
P 22   4742.165338  15186.247717  21438.367739    160.239782                    
V 22 -25221.385930   9445.888047  -1216.005216      -.008632                    
P 23  13694.208753  -7989.686043 -21361.482496    347.241520                    
V 23  20971.290885  17079.311974   6727.879151      -.019959                    
P 24  15853.870063  -1829.385454  21274.886259    332.859815                    
V 24  -4329.802039  26581.781528   5786.928232       .033030                    
P 25 -15546.250278  16857.207638 -13434.736465    -47.504213                    
V 25 -16510.540547   4675.459301  24998.613479      -.021885                    
P 26 -22060.903276 -10978.674853   9876.774356    -36.304074                    
V 26  -8829.920923  -9943.063120 -28704.945348      -.077146                    
P 27 -15135.412286   5287.136059  21815.660798    201.212071                    
V 27   1665.665690 -26058.034363   7930.812919       .036609                    
P 28  -1068.549947 -15568.561173  21948.822853      1.673947                    
V 28  25247.999905  -8752.540888  -5373.748298       .016233                    
P 29  -5064.321281  15064.596310 -21206.830108    158.576013                    
V 29 -21251.628646 -16838.841906  -6822.756803       .027893                    
P 30  -8111.858919  17921.472814 -18292.886403    290.179183                    
V 30 -20919.150118   8020.469104  17557.905582       .033349                    
P 31   9055.228764  17948.528299 -17057.655922      2.125982                    
V 31  -4657.556785  21653.191093  20240.312829       .035038                    
P 32  25475.544109  -6554.545245   1916.010694   -115.874247                    
V 32  -1013.364606   3700.092299  31802.966210      -.086995                    
EOF
